#dV2022 12 31 22  0  0.00000000    1682       CTS   FIT  GFZ
## 2242 597600.00000000    30.00000000 59944 0.9166666666667
+    1   L64  0  0  0  0  0  0  0  0  0  0  0  0  0  0  0  0
+          0  0  0  0  0  0  0  0  0  0  0  0  0  0  0  0  0
+          0  0  0  0  0  0  0  0  0  0  0  0  0  0  0  0  0
+          0  0  0  0  0  0  0  0  0  0  0  0  0  0  0  0  0
+          0  0  0  0  0  0  0  0  0  0  0  0  0  0  0  0  0
++         0  0  0  0  0  0  0  0  0  0  0  0  0  0  0  0  0
++         0  0  0  0  0  0  0  0  0  0  0  0  0  0  0  0  0
++         0  0  0  0  0  0  0  0  0  0  0  0  0  0  0  0  0
++         0  0  0  0  0  0  0  0  0  0  0  0  0  0  0  0  0
++         0  0  0  0  0  0  0  0  0  0  0  0  0  0  0  0  0
%c L  cc GPS ccc cccc cccc cccc cccc ccccc ccccc ccccc ccccc
%c cc cc ccc ccc cccc cccc cccc cccc ccccc ccccc ccccc ccccc
%f  0.0000000  0.000000000  0.00000000000  0.000000000000000
%f  0.0000000  0.000000000  0.00000000000  0.000000000000000
%i    0    0    0    0      0      0      0      0         0
%i    0    0    0    0      0      0      0      0         0
/* CCCCCCCCCCCCCCCCCCCCCCCCCCCCCCCCCCCCCCCCCCCCCCCCCCCCCCCCCCCCCCCCCCCCCCCCCCCCC
/* C                             GFZ RSO-ORBIT                                 C
/* C DOI: https://doi.org/10.5880/GFZ_ORBIT/RSO/L64_G_v02                      C
/* C                                                                           C
/* C DORIS        RMS: not applicable                                          C
/* C GNSS-E Code  RMS: not applicable                                          C
/* C GNSS-E Phase RMS: not applicable                                          C
/* C GNSS-G Code  RMS:  50.988 [cm]   Obs.acc.:     14364 Obs.eli.:      1068  C
/* C GNSS-G Phase RMS:   4.149 [mm]   Obs.acc.:     14364 Obs.eli.:      1068  C
/* C SLR          RMS:   3.019 [cm]   Obs.acc.:        38 Obs.eli.:         0  C
/* C                                                                           C
/* CCCCCCCCCCCCCCCCCCCCCCCCCCCCCCCCCCCCCCCCCCCCCCCCCCCCCCCCCCCCCCCCCCCCCCCCCCCCC
*  2023  1  1 10 19 30.00000000
PL64   2735.310737  -5693.534676   2720.822865  14836.403895
VL64  10235.546722 -28564.992125 -69848.072650 999999.999999
*  2023  1  1 10 20  0.00000000
PL64   2764.326869  -5776.152437   2509.812601  14836.863168
VL64   9108.261866 -26507.633663 -70812.478831 999999.999999
*  2023  1  1 10 20 30.00000000
PL64   2789.959328  -5852.546331   2296.026264  14837.322417
VL64   7979.996686 -24416.128842 -71698.615944 999999.999999
*  2023  1  1 10 21  0.00000000
PL64   2812.207255  -5922.617364   2079.700167  14837.781652
VL64   6852.137236 -22292.780269 -72505.494689 999999.999999
*  2023  1  1 10 21 30.00000000
PL64   2831.073934  -5986.273511   1861.073464  14838.240853
VL64   5726.060108 -20139.931536 -73232.208248 999999.999999
*  2023  1  1 10 22  0.00000000
PL64   2846.566767  -6043.429841   1640.387905  14838.700073
VL64   4603.133711 -17959.971773 -73877.937369 999999.999999
*  2023  1  1 10 22 30.00000000
PL64   2858.697243  -6094.008657   1417.887551  14839.159313
VL64   3484.713078 -15755.329229 -74441.958179 999999.999999
*  2023  1  1 10 23  0.00000000
PL64   2867.480890  -6137.939593   1193.818498  14839.618525
VL64   2372.136733 -13528.463699 -74923.639467 999999.999999
*  2023  1  1 10 23 30.00000000
PL64   2872.937231  -6175.159705    968.428598  14840.077712
VL64   1266.727803 -11281.864670 -75322.440223 999999.999999
*  2023  1  1 10 24  0.00000000
PL64   2875.089731  -6205.613566    741.967190  14840.537044
VL64    169.792580  -9018.051807 -75637.911154 999999.999999
*  2023  1  1 10 24 30.00000000
PL64   2873.965747  -6229.253350    514.684819  14840.996301
VL64   -917.383323  -6739.573670 -75869.697936 999999.999999
*  2023  1  1 10 25  0.00000000
PL64   2869.596454  -6246.038914    286.832947  14841.455549
VL64  -1993.537157  -4449.002567 -76017.543613 999999.999999
*  2023  1  1 10 25 30.00000000
PL64   2862.016785  -6255.937862     58.663662  14841.914788
VL64  -3057.429943  -2148.928629 -76081.287987 999999.999999
*  2023  1  1 10 26  0.00000000
PL64   2851.265351  -6258.925588   -169.570612  14842.373990
VL64  -4107.847204    158.043464 -76060.866721 999999.999999
*  2023  1  1 10 26 30.00000000
PL64   2837.384367  -6254.985319   -397.617402  14842.833220
VL64  -5143.600813   2469.297454 -75956.311805 999999.999999
*  2023  1  1 10 27  0.00000000
PL64   2820.419570  -6244.108145   -625.224474  14843.292485
VL64  -6163.531218   4782.209648 -75767.750469 999999.999999
*  2023  1  1 10 27 30.00000000
PL64   2800.420134  -6226.293032   -852.140116  14843.751580
VL64  -7166.508438   7094.151308 -75495.403193 999999.999999
*  2023  1  1 10 28  0.00000000
PL64   2777.438573  -6201.546839  -1078.113417  14844.210615
VL64  -8151.433277   9402.490405 -75139.583585 999999.999999
*  2023  1  1 10 28 30.00000000
PL64   2751.530655  -6169.884325  -1302.894548  14844.669757
VL64  -9117.238738  11704.593974 -74700.698215 999999.999999
*  2023  1  1 10 29  0.00000000
PL64   2722.755296  -6131.328143  -1526.235038  14845.128869
VL64 -10062.890628  13997.830080 -74179.247396 999999.999999
*  2023  1  1 10 29 30.00000000
PL64   2691.174465  -6085.908838  -1747.888060  14845.587964
VL64 -10987.389294  16279.573255 -73575.827189 999999.999999
*  2023  1  1 10 30  0.00000000
PL64   2656.853078  -6033.664808  -1967.608717  14846.047152
VL64 -11889.771018  18547.212267 -72891.125909 999999.999999
*  2023  1  1 10 30 30.00000000
PL64   2619.858887  -5974.642266  -2185.154308  14846.506364
VL64 -12769.106442  20798.149241 -72125.919705 999999.999999
*  2023  1  1 10 31  0.00000000
PL64   2580.262380  -5908.895202  -2400.284596  14846.965330
VL64 -13624.502467  23029.797581 -71281.077064 999999.999999
*  2023  1  1 10 31 30.00000000
PL64   2538.136664  -5836.485338  -2612.762093  14847.424250
VL64 -14455.107365  25239.590088 -70357.559860 999999.999999
*  2023  1  1 10 32  0.00000000
PL64   2493.557338  -5757.482060  -2822.352326  14847.883327
VL64 -15260.111242  27424.985333 -69356.416757 999999.999999
*  2023  1  1 10 32 30.00000000
PL64   2446.602369  -5671.962339  -3028.824097  14848.342565
VL64 -16038.744147  29583.468194 -68278.780286 999999.999999
*  2023  1  1 10 33  0.00000000
PL64   2397.351976  -5580.010651  -3231.949729  14848.801860
VL64 -16790.275889  31712.552044 -67125.867942 999999.999999
*  2023  1  1 10 33 30.00000000
PL64   2345.888505  -5481.718880  -3431.505328  14849.261154
VL64 -17514.017945  33809.783970 -65898.981211 999999.999999
*  2023  1  1 10 34  0.00000000
PL64   2292.296305  -5377.186216  -3627.271021  14849.720488
VL64 -18209.324967  35872.747784 -64599.501226 999999.999999
*  2023  1  1 10 34 30.00000000
PL64   2236.661594  -5266.519042  -3819.031198  14850.179818
VL64 -18875.594857  37899.064243 -63228.886677 999999.999999
*  2023  1  1 10 35  0.00000000
PL64   2179.072333  -5149.830819  -4006.574740  14850.639167
VL64 -19512.268655  39886.393305 -61788.673489 999999.999999
*  2023  1  1 10 35 30.00000000
PL64   2119.618095  -5027.241968  -4189.695249  14851.098602
VL64 -20118.830512  41832.437770 -60280.473405 999999.999999
*  2023  1  1 10 36  0.00000000
PL64   2058.389935  -4898.879730  -4368.191276  14851.558063
VL64 -20694.808339  43734.946611 -58705.971417 999999.999999
*  2023  1  1 10 36 30.00000000
PL64   1995.480259  -4764.878029  -4541.866529  14852.017606
VL64 -21239.773922  45591.716739 -57066.922828 999999.999999
*  2023  1  1 10 37  0.00000000
PL64   1930.982690  -4625.377324  -4710.530088  14852.477477
VL64 -21753.342513  47400.594507 -55365.152100 999999.999999
*  2023  1  1 10 37 30.00000000
PL64   1864.991943  -4480.524457  -4873.996610  14852.937210
VL64 -22235.173347  49159.479061 -53602.551543 999999.999999
*  2023  1  1 10 38  0.00000000
PL64   1797.603686  -4330.472489  -5032.086523  14853.396776
VL64 -22684.970162  50866.325430 -51781.078030 999999.999999
*  2023  1  1 10 38 30.00000000
PL64   1728.914410  -4175.380532  -5184.626221  14853.856240
VL64 -23102.481061  52519.146261 -49902.750082 999999.999999
*  2023  1  1 10 39  0.00000000
PL64   1659.021294  -4015.413567  -5331.448245  14854.315685
VL64 -23487.498676  54116.013771 -47969.645597 999999.999999
*  2023  1  1 10 39 30.00000000
PL64   1588.022075  -3850.742271  -5472.391451  14854.775081
VL64 -23839.860286  55655.061570 -45983.899119 999999.999999
*  2023  1  1 10 40  0.00000000
PL64   1516.014909  -3681.542823  -5607.301185  14855.234406
VL64 -24159.446979  57134.486110 -43947.699538 999999.999999
*  2023  1  1 10 40 30.00000000
PL64   1443.098245  -3507.996719  -5736.029435  14855.693706
VL64 -24446.183055  58552.548383 -41863.288284 999999.999999
*  2023  1  1 10 41  0.00000000
PL64   1369.370695  -3330.290570  -5858.434993  14856.153071
VL64 -24700.036494  59907.575564 -39732.956964 999999.999999
*  2023  1  1 10 41 30.00000000
PL64   1294.930899  -3148.615908  -5974.383595  14856.612518
VL64 -24921.018827  61197.962782 -37559.045250 999999.999999
*  2023  1  1 10 42  0.00000000
PL64   1219.877400  -2963.168970  -6083.748068  14857.071938
VL64 -25109.184446  62422.175867 -35343.938637 999999.999999
*  2023  1  1 10 42 30.00000000
PL64   1144.308513  -2774.150491  -6186.408458  14857.531363
VL64 -25264.630068  63578.753270 -33090.064792 999999.999999
*  2023  1  1 10 43  0.00000000
PL64   1068.322202  -2581.765477  -6282.252155  14857.990758
VL64 -25387.494142  64666.306520 -30799.891016 999999.999999
*  2023  1  1 10 43 30.00000000
PL64    992.015952  -2386.222992  -6371.174009  14858.450078
VL64 -25477.956218  65683.522044 -28475.922728 999999.999999
*  2023  1  1 10 44  0.00000000
PL64    915.486649  -2187.735922  -6453.076437  14858.909410
VL64 -25536.235710  66629.163447 -26120.700369 999999.999999
*  2023  1  1 10 44 30.00000000
PL64    838.830463  -1986.520746  -6527.869528  14859.368706
VL64 -25562.591047  67502.072488 -23736.796216 999999.999999
EOF
